[{"OBJECT_NAME":"SCS-01 H","OBJECT_ID":"2025-100H","EPOCH":"2026-03-09T23:19:05.376864","MEAN_MOTION":15.31767757,"ECCENTRICITY":0.00071581,"INCLINATION":97.3749,"RA_OF_ASC_NODE":145.8085,"ARG_OF_PERICENTER":277.8492,"MEAN_ANOMALY":82.1937,"EPHEMERIS_TYPE":0,"CLASSIFICATION_TYPE":"U","NORAD_CAT_ID":63989,"ELEMENT_SET_NO":999,"REV_AT_EPOCH":4566,"BSTAR":0.0011436254,"MEAN_MOTION_DOT":0.00035149,"MEAN_MOTION_DDOT":0},{"OBJECT_NAME":"STARLINK-34799","OBJECT_ID":"2025-195Q","EPOCH":"2026-03-09T17:11:12.263424","MEAN_MOTION":15.30206661,"ECCENTRICITY":8.149e-5,"INCLINATION":53.1611,"RA_OF_ASC_NODE":258.3469,"ARG_OF_PERICENTER":123.0217,"MEAN_ANOMALY":237.0862,"EPHEMERIS_TYPE":0,"CLASSIFICATION_TYPE":"U","NORAD_CAT_ID":65472,"ELEMENT_SET_NO":999,"REV_AT_EPOCH":2997,"BSTAR":0.00083472452,"MEAN_MOTION_DOT":0.00024449,"MEAN_MOTION_DDOT":0}]
